IRIDIUM 8 [+]           
1 24792U 97020A   16340.48938631  .00000051  00000-0  11279-4 0  9998
2 24792  86.3976  39.6733 0002194  94.2025 265.9421 14.34220699 25437
IRIDIUM 7 [+]           
1 24793U 97020B   16340.27374625  .00000186  00000-0  59201-4 0  9999
2 24793  86.3983  40.0355 0002212  94.9381 265.2067 14.34227608 25408
IRIDIUM 6 [+]           
1 24794U 97020C   16340.54637559  .00000178  00000-0  56598-4 0  9995
2 24794  86.3980  39.8567 0002163  96.2475 263.8967 14.34222047 25440
IRIDIUM 5 [+]           
1 24795U 97020D   16340.33082156  .00000224  00000-0  72894-4 0  9999
2 24795  86.3984  39.9662 0002254  98.7370 261.4081 14.34229040 25490
IRIDIUM 4 [-]           
1 24796U 97020E   16340.30908308  .00000149  00000-0  45355-4 0  9991
2 24796  86.3974  39.0345 0002194  91.8498 312.3630 14.35124686 25494
IRIDIUM 914 [-]         
1 24836U 97030A   16340.35936165  .00000116  00000-0  31209-4 0  9991
2 24836  86.3957  56.2896 0003193  66.2820 293.8713 14.38724815 21075
IRIDIUM 12 [+]          
1 24837U 97030B   16340.42602660  .00000237  00000-0  77515-4 0  9994
2 24837  86.3978  71.1041 0002188  97.0620 310.6815 14.34217551 19179
IRIDIUM 10 [+]          
1 24839U 97030D   16340.41305155  .00000060  00000-0  14307-4 0  9998
2 24839  86.3977  71.0905 0002154  96.3621 309.8823 14.34218898 19189
IRIDIUM 13 [+]          
1 24840U 97030E   16340.35338868  .00000232  00000-0  75616-4 0  9991
2 24840  86.3979  71.2513 0002337  98.0136 262.1325 14.34219525 19167
IRIDIUM 16 [-]          
1 24841U 97030F   16340.36957550  .00000154  00000-0  45612-4 0  9994
2 24841  86.4056  71.1973 0002704 149.1411 210.9945 14.36675374 19750
IRIDIUM 911 [-]         
1 24842U 97030G   16340.41323429  .00000181  00000-0  46268-4 0  9991
2 24842  86.4483  72.0786 0015057  23.0465 337.1409 14.44915328 24962
IRIDIUM 15 [+]          
1 24869U 97034A   16340.46464137  .00000175  00000-0  55484-4 0  9994
2 24869  86.3962 103.1062 0001829  99.6305 260.5097 14.34211738 16145
IRIDIUM 17 [-]          
1 24870U 97034B   16340.48832738  .00000166  00000-0  50570-4 0  9995
2 24870  86.3970 101.3571 0003861 110.3202 249.8409 14.35723502 16387
IRIDIUM 920 [-]         
1 24871U 97034C   16340.49596681  .00000101  00000-0  25949-4 0  9992
2 24871  86.3987  88.0006 0009707 254.4292 105.5835 14.39441108 18492
IRIDIUM 18 [+]          
1 24872U 97034D   16340.44560680  .00000162  00000-0  50882-4 0  9999
2 24872  86.3969 103.0757 0001966  98.5441 261.5978 14.34213748 16149
IRIDIUM 921 [-]         
1 24873U 97034E   16340.55091787  .00000615  00000-0  34757-4 0  9995
2 24873  86.3934 157.4822 0008672  26.0562 334.1110 15.10972130 58850
IRIDIUM 26 [-]          
1 24903U 97043A   16340.50168850  .00000129  00000-0  38269-4 0  9992
2 24903  86.3948 335.9004 0002050  92.8087  18.3417 14.35226128 10192
IRIDIUM 25 [+]          
1 24904U 97043B   16340.46348073 -.00000053  00000-0 -25853-4 0  9998
2 24904  86.3936 336.4321 0001947  87.4443 272.6976 14.34216324 10065
IRIDIUM 46 [+]          
1 24905U 97043C   16340.47618888  .00000015  00000-0 -15356-5 0  9999
2 24905  86.3949 336.9631 0002056  88.7625 271.3807 14.34215016 10063
IRIDIUM 23 [+]          
1 24906U 97043D   16340.49127130 -.00000065  00000-0 -30133-4 0  9992
2 24906  86.3950 336.4395 0001920  83.1772  27.6099 14.34216774 10077
IRIDIUM 22 [+]          
1 24907U 97043E   16340.51421754 -.00000055  00000-0 -26700-4 0  9999
2 24907  86.3946 337.0572 0002020  85.1867 274.9560 14.34216229 10071
DUMMY MASS 1 [-]        
1 24925U 97048A   16339.52414088  .00000103  00000-0  87593-5 0  9995
2 24925  86.3344 133.1810 0007836  28.2277 331.9370 14.85110547 42694
DUMMY MASS 2 [-]        
1 24926U 97048B   16340.47572459  .00000099  00000-0  82959-5 0  9994
2 24926  86.3345 133.8260 0008776  30.2787 329.8942 14.84878972 42687
IRIDIUM 29 [-]          
1 24944U 97051A   16340.48865721  .00000084  00000-0  22857-4 0  9990
2 24944  86.3960   7.9149 0002392  84.7460 275.4009 14.34612707  6651
IRIDIUM 32 [+]          
1 24945U 97051B   16340.54305373  .00000087  00000-0  23931-4 0  9997
2 24945  86.3959   8.0695 0002122  90.3807 269.7632 14.34221190  6668
IRIDIUM 33 [-]          
1 24946U 97051C   16340.48425549  .00000087  00000-0  24421-4 0  9994
2 24946  86.3874   7.8235 0009118 142.4725 217.7108 14.33526461  6289
IRIDIUM 28 [-]          
1 24948U 97051E   16340.48841607  .00000100  00000-0  27854-4 0  9992
2 24948  86.3964   7.2583 0002109 101.0623 259.0811 14.35519900  6790
IRIDIUM 30 [+]          
1 24949U 97051F   16340.46708251 -.00000247  00000-0 -95278-4 0  9997
2 24949  86.3961   8.2053 0002010 102.1057 258.0365 14.34202289  6639
IRIDIUM 31 [+]          
1 24950U 97051G   16340.53038838  .00000091  00000-0  25517-4 0  9998
2 24950  86.3960   8.1669 0002289  91.3757 268.7701 14.34220983  6651
IRIDIUM 19 [+]          
1 24965U 97056A   16340.51475810  .00000017  00000-0 -81822-6 0  9994
2 24965  86.3977  39.6727 0002193  94.9574 265.1872 14.34219910  4790
IRIDIUM 35 [+]          
1 24966U 97056B   16340.31812068  .00000188  00000-0  59957-4 0  9993
2 24966  86.3977  39.7502 0002191  95.2100 264.9346 14.34220948  4741
IRIDIUM 36 [-]          
1 24967U 97056C   16340.29125429  .00000115  00000-0  32904-4 0  9992
2 24967  86.3988  38.9718 0002347  93.1554 266.9911 14.35572083  5042
IRIDIUM 37 [+]          
1 24968U 97056D   16340.29275842  .00000175  00000-0  55364-4 0  9999
2 24968  86.3980  39.9418 0002204  94.3307 265.8141 14.34220392  4745
IRIDIUM 34 [+]          
1 24969U 97056E   16340.31179800  .00000178  00000-0  56615-4 0  9993
2 24969  86.3980  39.8705 0002227  95.7287 264.4163 14.34219911  4745
IRIDIUM 43 [+]          
1 25039U 97069A   16340.43932988  .00000210  00000-0  67943-4 0  9996
2 25039  86.3976 103.0068 0002236  95.9001 264.2449 14.34212197998545
IRIDIUM 41 [+]          
1 25040U 97069B   16340.50269364  .00000159  00000-0  49711-4 0  9992
2 25040  86.3969 102.9353 0001929  98.9284 261.2131 14.34214229998552
IRIDIUM 40 [+]          
1 25041U 97069C   16340.45831692  .00000212  00000-0  68786-4 0  9999
2 25041  86.3974 103.1777 0003209  91.6124 268.5439 14.34214549998565
IRIDIUM 39 [B]          
1 25042U 97069D   16340.48069417  .00000167  00000-0  41174-4 0  9992
2 25042  86.3927 101.8692 0017341 232.9251 127.0367 14.46112122998722
IRIDIUM 38 [-]          
1 25043U 97069E   16340.50665062  .00000151  00000-0  45313-4 0  9996
2 25043  86.3969 100.3505 0002274 131.2096 228.9298 14.35994464998935
IRIDIUM 42 [-]          
1 25077U 97077A   16340.55341303  .00000059  00000-0  13942-4 0  9996
2 25077  86.3971 102.8960 0002030  98.5934 261.5492 14.34518122994435
IRIDIUM 44 [-]          
1 25078U 97077B   16340.43457817  .00000134  00000-0  37617-4 0  9991
2 25078  86.3973  92.9978 0002671 132.5074 227.6350 14.38080981995787
IRIDIUM 45 [+]          
1 25104U 97082A   16340.45424039  .00000104  00000-0  30219-4 0  9997
2 25104  86.3958   8.2351 0001835 123.4026 236.7346 14.34222093992604
IRIDIUM 24 [-]          
1 25105U 97082B   16340.49589953  .00000122  00000-0  32536-4 0  9993
2 25105  86.3912 317.2542 0009501 261.8062  98.2059 14.39822705994981
IRIDIUM 47 [+]          
1 25106U 97082C   16340.48251308 -.00000048  00000-0 -24160-4 0  9996
2 25106  86.3934 336.3013 0001923  83.2757 276.8658 14.34216206992602
IRIDIUM 49 [+]          
1 25108U 97082E   16340.51693169 -.00000055  00000-0 -26819-4 0  9998
2 25108  86.3936 336.3845 0001956  84.7942  27.5552 14.34216670992617
IRIDIUM 52 [+]          
1 25169U 98010A   16340.38510085  .00000221  00000-0  71924-4 0  9997
2 25169  86.3982  71.4085 0002216  96.8136 263.3312 14.34222275984003
IRIDIUM 56 [+]          
1 25170U 98010B   16340.37875532  .00000263  00000-0  86933-4 0  9991
2 25170  86.3993  71.5106 0001940 101.7649 258.3764 14.34218887983985
IRIDIUM 54 [+]          
1 25171U 98010C   16340.41046290  .00000226  00000-0  73761-4 0  9992
2 25171  86.3983  71.4178 0002211  96.5467 263.5981 14.34217360984158
IRIDIUM 50 [+]          
1 25172U 98010D   16340.37240830  .00000233  00000-0  76111-4 0  9994
2 25172  86.3982  71.3910 0002202  94.5526 265.5921 14.34217685983981
IRIDIUM 53 [+]          
1 25173U 98010E   16340.39143455  .00000221  00000-0  71911-4 0  9992
2 25173  86.3982  71.3887 0002216  96.7789 263.3659 14.34217423983990
IRIDIUM 51 [S]          
1 25262U 98018A   16340.54647917  .00000185  00000-0  59103-4 0  9996
2 25262  86.3994  39.9616 0002110  90.8344 269.3094 14.34220842983401
IRIDIUM 61 [+]          
1 25263U 98018B   16340.29910990  .00000162  00000-0  50821-4 0  9996
2 25263  86.3980  39.9046 0002170  94.5403 265.6040 14.34220354979073
IRIDIUM 55 [+]          
1 25272U 98019A   16340.51134297  .00000089  00000-0  24751-4 0  9991
2 25272  86.3958   7.9923 0002128  91.7487 268.3953 14.34220313978304
IRIDIUM 57 [-]          
1 25273U 98019B   16340.48397105  .00000078  00000-0  20854-4 0  9995
2 25273  86.3964   8.3030 0002205  87.9977 272.1471 14.34247639978301
IRIDIUM 58 [+]          
1 25274U 98019C   16340.49229628  .00000092  00000-0  25651-4 0  9997
2 25274  86.3965   8.4911 0002052  90.6606 269.4824 14.34222004978302
IRIDIUM 59 [+]          
1 25275U 98019D   16340.49863296  .00000096  00000-0  27176-4 0  9991
2 25275  86.3959   8.3519 0002167  88.9966 271.1478 14.34217701978308
IRIDIUM 60 [+]          
1 25276U 98019E   16340.50498834  .00000091  00000-0  25572-4 0  9999
2 25276  86.3956   7.9765 0002135  92.0528 268.0912 14.34221431978302
IRIDIUM 62 [+]          
1 25285U 98021A   16340.46644273  .00000027  00000-0  25748-5 0  9992
2 25285  86.3944 304.8858 0002049  84.7047 275.4383 14.34216821977253
IRIDIUM 63 [-]          
1 25286U 98021B   16340.54952131  .00000123  00000-0  36701-4 0  9994
2 25286  86.3974 305.2485 0002237  81.6600  37.0117 14.34628896977287
